[{"OBJECT_NAME":"SHIYAN-6 01 (SY-6 01)","OBJECT_ID":"2018-094B","EPOCH":"2026-03-09T23:04:36.967872","MEAN_MOTION":15.28649156,"ECCENTRICITY":0.00144834,"INCLINATION":97.3669,"RA_OF_ASC_NODE":84.0964,"ARG_OF_PERICENTER":135.6758,"MEAN_ANOMALY":224.5644,"EPHEMERIS_TYPE":0,"CLASSIFICATION_TYPE":"U","NORAD_CAT_ID":43711,"ELEMENT_SET_NO":999,"REV_AT_EPOCH":40632,"BSTAR":0.00024768444,"MEAN_MOTION_DOT":6.847e-5,"MEAN_MOTION_DDOT":0},{"OBJECT_NAME":"STARLINK-2253","OBJECT_ID":"2021-041AV","EPOCH":"2026-03-09T12:19:56.497440","MEAN_MOTION":15.29352118,"ECCENTRICITY":0.00015568,"INCLINATION":53.1558,"RA_OF_ASC_NODE":140.3593,"ARG_OF_PERICENTER":88.0661,"MEAN_ANOMALY":272.0518,"EPHEMERIS_TYPE":0,"CLASSIFICATION_TYPE":"U","NORAD_CAT_ID":48596,"ELEMENT_SET_NO":999,"REV_AT_EPOCH":26552,"BSTAR":0.00018559269,"MEAN_MOTION_DOT":5.002e-5,"MEAN_MOTION_DDOT":0}]
